{
  "type": "FeatureCollection",
  "features": [
    {
      "type": "Feature",
      "properties": {
        "norad_id": 25590,
        "name": "COSMOS 2361",
        "group": "musson",
        "lat": 57.974682049292106,
        "lon": 154.89304078829687,
        "alt_km": 1002.2057131809142,
        "timestamp": "2025-12-09T16:56:36.844408+00:00",
        "meta_object_name": "COSMOS 2361",
        "meta_object_id": "1998-076A",
        "meta_epoch": "2025-12-09T11:40:26.349312",
        "meta_mean_motion": 13.73216995,
        "meta_eccentricity": 0.0030062,
        "meta_inclination": 82.9338,
        "meta_ra_of_asc_node": 346.4929,
        "meta_arg_of_pericenter": 275.0544,
        "meta_mean_anomaly": 201.5315,
        "meta_ephemeris_type": 0,
        "meta_classification_type": "U",
        "meta_norad_cat_id": 25590,
        "meta_element_set_no": 999,
        "meta_rev_at_epoch": 35066,
        "meta_bstar": 9.0442e-05,
        "meta_mean_motion_dot": 9.9e-07,
        "meta_mean_motion_ddot": 0,
        "tle_line1": "1 25590U 98076A   25343.48641608  .00000099  00000+0  90442-4 0  9995",
        "tle_line2": "2 25590  82.9338 346.4929 0030062 275.0544 201.5315 13.73216995350664"
      },
      "geometry": {
        "type": "Point",
        "coordinates": [
          154.89304078829687,
          57.974682049292106
        ]
      }
    },
    {
      "type": "Feature",
      "properties": {
        "norad_id": 26818,
        "name": "COSMOS 2378",
        "group": "musson",
        "lat": -3.8653170371331713,
        "lon": -177.54472824782556,
        "alt_km": 967.5017788496934,
        "timestamp": "2025-12-09T16:56:36.844428+00:00",
        "meta_object_name": "COSMOS 2378",
        "meta_object_id": "2001-023A",
        "meta_epoch": "2025-12-09T11:20:25.594944",
        "meta_mean_motion": 13.74141611,
        "meta_eccentricity": 0.0032222,
        "meta_inclination": 82.9273,
        "meta_ra_of_asc_node": 2.1477,
        "meta_arg_of_pericenter": 214.1503,
        "meta_mean_anomaly": 255.5383,
        "meta_ephemeris_type": 0,
        "meta_classification_type": "U",
        "meta_norad_cat_id": 26818,
        "meta_element_set_no": 999,
        "meta_rev_at_epoch": 22878,
        "meta_bstar": 6.2265e-05,
        "meta_mean_motion_dot": 7.4e-07,
        "meta_mean_motion_ddot": 0,
        "tle_line1": "1 26818U 01023A   25343.47251846  .00000074  00000+0  62265-4 0  9990",
        "tle_line2": "2 26818  82.9273   2.1477 0032222 214.1503 255.5383 13.74141611228783"
      },
      "geometry": {
        "type": "Point",
        "coordinates": [
          -177.54472824782556,
          -3.8653170371331713
        ]
      }
    },
    {
      "type": "Feature",
      "properties": {
        "norad_id": 27436,
        "name": "COSMOS 2389",
        "group": "musson",
        "lat": 19.167225548783005,
        "lon": -48.30399365993298,
        "alt_km": 958.3677069564383,
        "timestamp": "2025-12-09T16:56:36.844443+00:00",
        "meta_object_name": "COSMOS 2389",
        "meta_object_id": "2002-026A",
        "meta_epoch": "2025-12-09T10:26:12.615072",
        "meta_mean_motion": 13.75154125,
        "meta_eccentricity": 0.0047691,
        "meta_inclination": 82.95,
        "meta_ra_of_asc_node": 309.4314,
        "meta_arg_of_pericenter": 69.7156,
        "meta_mean_anomaly": 48.7172,
        "meta_ephemeris_type": 0,
        "meta_classification_type": "U",
        "meta_norad_cat_id": 27436,
        "meta_element_set_no": 999,
        "meta_rev_at_epoch": 18103,
        "meta_bstar": 9.419e-05,
        "meta_mean_motion_dot": 1.06e-06,
        "meta_mean_motion_ddot": 0,
        "tle_line1": "1 27436U 02026A   25343.43486823  .00000106  00000+0  94190-4 0  9990",
        "tle_line2": "2 27436  82.9500 309.4314 0047691  69.7156  48.7172 13.75154125181039"
      },
      "geometry": {
        "type": "Point",
        "coordinates": [
          -48.30399365993298,
          19.167225548783005
        ]
      }
    },
    {
      "type": "Feature",
      "properties": {
        "norad_id": 27818,
        "name": "COSMOS 2398",
        "group": "musson",
        "lat": 2.247655282640337,
        "lon": -84.7877430065834,
        "alt_km": 1004.6063000169315,
        "timestamp": "2025-12-09T16:56:36.844455+00:00",
        "meta_object_name": "COSMOS 2398",
        "meta_object_id": "2003-023A",
        "meta_epoch": "2025-12-09T08:45:40.244832",
        "meta_mean_motion": 13.72385214,
        "meta_eccentricity": 0.0032462,
        "meta_inclination": 82.9483,
        "meta_ra_of_asc_node": 275.1851,
        "meta_arg_of_pericenter": 120.8302,
        "meta_mean_anomaly": 358.4184,
        "meta_ephemeris_type": 0,
        "meta_classification_type": "U",
        "meta_norad_cat_id": 27818,
        "meta_element_set_no": 999,
        "meta_rev_at_epoch": 12770,
        "meta_bstar": 0.00010204,
        "meta_mean_motion_dot": 1.09e-06,
        "meta_mean_motion_ddot": 0,
        "tle_line1": "1 27818U 03023A   25343.36504913  .00000109  00000+0  10204-3 0  9991",
        "tle_line2": "2 27818  82.9483 275.1851 0032462 120.8302 358.4184 13.72385214127700"
      },
      "geometry": {
        "type": "Point",
        "coordinates": [
          -84.7877430065834,
          2.247655282640337
        ]
      }
    },
    {
      "type": "Feature",
      "properties": {
        "norad_id": 28380,
        "name": "COSMOS 2407",
        "group": "musson",
        "lat": 23.64511772756257,
        "lon": 32.037914098906576,
        "alt_km": 977.868231563004,
        "timestamp": "2025-12-09T16:56:36.844466+00:00",
        "meta_object_name": "COSMOS 2407",
        "meta_object_id": "2004-028A",
        "meta_epoch": "2025-12-09T04:32:09.726144",
        "meta_mean_motion": 13.7631308,
        "meta_eccentricity": 0.00404287,
        "meta_inclination": 82.9611,
        "meta_ra_of_asc_node": 215.5215,
        "meta_arg_of_pericenter": 64.4728,
        "meta_mean_anomaly": 51.0756,
        "meta_ephemeris_type": 0,
        "meta_classification_type": "U",
        "meta_norad_cat_id": 28380,
        "meta_element_set_no": 999,
        "meta_rev_at_epoch": 7374,
        "meta_bstar": 7.8593766e-05,
        "meta_mean_motion_dot": 9.3e-07,
        "meta_mean_motion_ddot": 0,
        "tle_line1": "1 28380U 04028A   25343.18900146  .00000093  00000+0  78594-4 0  9999",
        "tle_line2": "2 28380  82.9611 215.5215 0040428  64.4728  51.0756 13.76313080 73747"
      },
      "geometry": {
        "type": "Point",
        "coordinates": [
          32.037914098906576,
          23.64511772756257
        ]
      }
    },
    {
      "type": "Feature",
      "properties": {
        "norad_id": 28521,
        "name": "COSMOS 2414",
        "group": "musson",
        "lat": -66.12781924088391,
        "lon": 170.71544538444937,
        "alt_km": 967.5096627336534,
        "timestamp": "2025-12-09T16:56:36.844477+00:00",
        "meta_object_name": "COSMOS 2414",
        "meta_object_id": "2005-002A",
        "meta_epoch": "2025-12-09T12:04:42.140928",
        "meta_mean_motion": 13.8790242,
        "meta_eccentricity": 0.0040705,
        "meta_inclination": 82.9495,
        "meta_ra_of_asc_node": 187.1073,
        "meta_arg_of_pericenter": 148.7649,
        "meta_mean_anomaly": 211.5945,
        "meta_ephemeris_type": 0,
        "meta_classification_type": "U",
        "meta_norad_cat_id": 28521,
        "meta_element_set_no": 999,
        "meta_rev_at_epoch": 5750,
        "meta_bstar": 8.3687e-05,
        "meta_mean_motion_dot": 1.16e-06,
        "meta_mean_motion_ddot": 0,
        "tle_line1": "1 28521U 05002A   25343.50326552  .00000116  00000+0  83687-4 0  9993",
        "tle_line2": "2 28521  82.9495 187.1073 0040705 148.7649 211.5945 13.87902420 57509"
      },
      "geometry": {
        "type": "Point",
        "coordinates": [
          170.71544538444937,
          -66.12781924088391
        ]
      }
    },
    {
      "type": "Feature",
      "properties": {
        "norad_id": 32052,
        "name": "COSMOS 2429",
        "group": "musson",
        "lat": -25.813573787892405,
        "lon": 168.96232044288985,
        "alt_km": 1013.9381629977979,
        "timestamp": "2025-12-09T16:56:36.844489+00:00",
        "meta_object_name": "COSMOS 2429",
        "meta_object_id": "2007-038A",
        "meta_epoch": "2025-12-09T10:42:32.023008",
        "meta_mean_motion": 13.75148904,
        "meta_eccentricity": 0.0039397,
        "meta_inclination": 82.9802,
        "meta_ra_of_asc_node": 345.737,
        "meta_arg_of_pericenter": 46.8383,
        "meta_mean_anomaly": 313.6055,
        "meta_ephemeris_type": 0,
        "meta_classification_type": "U",
        "meta_norad_cat_id": 32052,
        "meta_element_set_no": 999,
        "meta_rev_at_epoch": 91557,
        "meta_bstar": 7.3832e-05,
        "meta_mean_motion_dot": 8.6e-07,
        "meta_mean_motion_ddot": 0,
        "tle_line1": "1 32052U 07038A   25343.44620397  .00000086  00000+0  73832-4 0  9992",
        "tle_line2": "2 32052  82.9802 345.7370 0039397  46.8383 313.6055 13.75148904915577"
      },
      "geometry": {
        "type": "Point",
        "coordinates": [
          168.96232044288985,
          -25.813573787892405
        ]
      }
    },
    {
      "type": "Feature",
      "properties": {
        "norad_id": 35635,
        "name": "COSMOS 2454",
        "group": "musson",
        "lat": -39.18714844041353,
        "lon": 165.15947269083006,
        "alt_km": 943.0715742220773,
        "timestamp": "2025-12-09T16:56:36.844499+00:00",
        "meta_object_name": "COSMOS 2454",
        "meta_object_id": "2009-039A",
        "meta_epoch": "2025-12-09T12:02:36.218112",
        "meta_mean_motion": 13.89927943,
        "meta_eccentricity": 0.0020483,
        "meta_inclination": 82.9555,
        "meta_ra_of_asc_node": 171.0995,
        "meta_arg_of_pericenter": 82.3706,
        "meta_mean_anomaly": 297.333,
        "meta_ephemeris_type": 0,
        "meta_classification_type": "U",
        "meta_norad_cat_id": 35635,
        "meta_element_set_no": 999,
        "meta_rev_at_epoch": 83105,
        "meta_bstar": 5.9777e-05,
        "meta_mean_motion_dot": 9e-07,
        "meta_mean_motion_ddot": 0,
        "tle_line1": "1 35635U 09039A   25343.50180808  .00000090  00000+0  59777-4 0  9997",
        "tle_line2": "2 35635  82.9555 171.0995 0020483  82.3706 297.3330 13.89927943831052"
      },
      "geometry": {
        "type": "Point",
        "coordinates": [
          165.15947269083006,
          -39.18714844041353
        ]
      }
    },
    {
      "type": "Feature",
      "properties": {
        "norad_id": 36519,
        "name": "COSMOS 2463",
        "group": "musson",
        "lat": -19.923915947306334,
        "lon": -148.49140362814822,
        "alt_km": 1001.7322889591142,
        "timestamp": "2025-12-09T16:56:36.844510+00:00",
        "meta_object_name": "COSMOS 2463",
        "meta_object_id": "2010-017A",
        "meta_epoch": "2025-12-09T09:01:19.875072",
        "meta_mean_motion": 13.71648818,
        "meta_eccentricity": 0.0034863,
        "meta_inclination": 82.9616,
        "meta_ra_of_asc_node": 29.1845,
        "meta_arg_of_pericenter": 297.7324,
        "meta_mean_anomaly": 73.7473,
        "meta_ephemeris_type": 0,
        "meta_classification_type": "U",
        "meta_norad_cat_id": 36519,
        "meta_element_set_no": 999,
        "meta_rev_at_epoch": 78191,
        "meta_bstar": 7.8018e-05,
        "meta_mean_motion_dot": 8.5e-07,
        "meta_mean_motion_ddot": 0,
        "tle_line1": "1 36519U 10017A   25343.37592448  .00000085  00000+0  78018-4 0  9992",
        "tle_line2": "2 36519  82.9616  29.1845 0034863 297.7324  73.7473 13.71648818781919"
      },
      "geometry": {
        "type": "Point",
        "coordinates": [
          -148.49140362814822,
          -19.923915947306334
        ]
      }
    }
  ]
}